format  = 'OEF2.0'       ! file format
rectype = 'ML'           ! record type (1L/ML)
refsys  = ECLM J2000     ! default reference system
END_OF_HEADER
1994GV
! Equinoctial elements: a, e*sin(LP), e*cos(LP), tan(i/2)*sin(LN), tan(i/2)*cos(LN), mean long.
 EQU   2.0056947049379721E+00   0.052390317515129  -0.518031731669703    0.001361589142992    0.003713104912232  63.6168756783517
 MJD     57400.000000000 TDT
 MAG  27.354  0.000
! Non-grav parameters: model used, actual number in use, dimension
 LSP   0  0    6
! RMS    3.17813E-02   7.00322E-03   6.90147E-03   7.26109E-05   1.23955E-04   7.40606E+00
! EIG  -6.44498E-10   8.51580E-09   4.22618E-08   5.40203E-07   1.15089E-05   1.33473E-01
! WEA   0.23811  -0.05247  -0.05171  -0.00054  -0.00093  -0.96844
 COV   1.010050763541475E-03 -2.225712195233266E-04 -2.193375412468867E-04
 COV  -2.307657370585721E-06 -3.939416495033687E-06 -2.353742430001428E-01
 COV   4.904511392080045E-05  4.833243804766171E-05  5.085081489770341E-07
 COV   8.680778061501449E-07  5.186622868556619E-02  4.763023736045006E-05
 COV   5.011191926517069E-07  8.554637189914853E-07  5.111268683992602E-02
 COV   5.272346175160973E-09  9.000485936906278E-09  5.377581535732461E-04
 COV   1.536485639723214E-08  9.180103198890303E-04  5.484975303289474E+01
 NOR   3.839965480475876E+19  1.205544652897233E+19 -8.702421721613453E+18
 NOR   4.488456624199436E+17 -2.731229202092301E+17  1.614926624135722E+17
 NOR   3.784768185579237E+18 -2.732096417209724E+18  1.409030559217796E+17
 NOR  -8.574154080155741E+16  5.070009477206074E+16  1.972843365804836E+18
 NOR  -1.009876835668552E+17  6.158106851451410E+16 -3.659928854136482E+16
 NOR   1.682635083408574E+16 -8.206838784516199E+15  1.886951708482096E+15
 NOR   4.118032128054326E+15 -1.148336094807308E+15  6.791702027901820E+14
